{"type":"FeatureCollection","features":[{"type":"Feature","geometry":{"type":"Point","coordinates":[-88.6433972894933,41.0139212416242]},"properties":{"site":"05554600","name":"MUD CREEK TRIBUTARY NEAR ODELL, IL","stage":null,"stage_time":null,"discharge":null,"verification":"station_discovery_only","source":"USGS Monitoring Locations OGC API"}},{"type":"Feature","geometry":{"type":"Point","coordinates":[-87.7669444444444,41.08]},"properties":{"site":"05520700","name":"SPRING CREEK NEAR AROMA PARK, IL","stage":null,"stage_time":null,"discharge":null,"verification":"station_discovery_only","source":"USGS Monitoring Locations OGC API"}},{"type":"Feature","geometry":{"type":"Point","coordinates":[-87.7922586861882,40.9250335439339]},"properties":{"site":"05525640","name":"PIKE CREEK NEAR MARTINTON, IL","stage":null,"stage_time":null,"discharge":null,"verification":"station_discovery_only","source":"USGS Monitoring Locations OGC API"}},{"type":"Feature","geometry":{"type":"Point","coordinates":[-87.8844841857618,40.9689216996928]},"properties":{"site":"05525680","name":"LANGAN CREEK AT 1300E ROAD NEAR CLIFTON, IL","stage":null,"stage_time":null,"discharge":null,"verification":"station_discovery_only","source":"USGS Monitoring Locations OGC API"}},{"type":"Feature","geometry":{"type":"Point","coordinates":[-87.8280934600271,40.9541997873777]},"properties":{"site":"05525690","name":"LANGAN CREEK NEAR CLIFTON, IL","stage":null,"stage_time":null,"discharge":null,"verification":"station_discovery_only","source":"USGS Monitoring Locations OGC API"}},{"type":"Feature","geometry":{"type":"Point","coordinates":[-87.7900370296348,40.9700330388161]},"properties":{"site":"05525900","name":"BEAVER CREEK NEAR PAPINEAU, IL","stage":null,"stage_time":null,"discharge":null,"verification":"station_discovery_only","source":"USGS Monitoring Locations OGC API"}},{"type":"Feature","geometry":{"type":"Point","coordinates":[-87.8240555555555,41.0092222222222]},"properties":{"site":"05526000","name":"IROQUOIS RIVER NEAR CHEBANSE, IL","stage":null,"stage_time":null,"discharge":null,"verification":"station_discovery_only","source":"USGS Monitoring Locations OGC API"}},{"type":"Feature","geometry":{"type":"Point","coordinates":[-87.8744863218802,41.0936435319271]},"properties":{"site":"05526095","name":"GAR CREEK DITCH AT KANKAKEE, IL","stage":null,"stage_time":null,"discharge":null,"verification":"station_discovery_only","source":"USGS Monitoring Locations OGC API"}},{"type":"Feature","geometry":{"type":"Point","coordinates":[-87.8042059022667,41.0750326646506]},"properties":{"site":"4104300874815","name":"KANKAKEE RIVER AT AROMA PARK, IL","stage":null,"stage_time":null,"discharge":null,"verification":"station_discovery_only","source":"USGS Monitoring Locations OGC API"}},{"type":"Feature","geometry":{"type":"Point","coordinates":[-87.8042059022667,41.0750326646506]},"properties":{"site":"410430087481501","name":"KANKAKEE RIVER AT NYC RR AT AROMA PARK, IL","stage":null,"stage_time":null,"discharge":null,"verification":"station_discovery_only","source":"USGS Monitoring Locations OGC API"}},{"type":"Feature","geometry":{"type":"Point","coordinates":[-87.5991666666667,40.9655555555556]},"properties":{"site":"05525850","name":"BEAVER CREEK AT NORTH HOOPER, IL","stage":null,"stage_time":null,"discharge":null,"verification":"station_discovery_only","source":"USGS Monitoring Locations OGC API"}},{"type":"Feature","geometry":{"type":"Point","coordinates":[-87.43445429528089,40.90446737006093]},"properties":{"site":"05524650","name":"CLARK DITCH TRIB NR MOROCCO, IND.","stage":null,"stage_time":null,"discharge":null,"verification":"station_discovery_only","source":"USGS Monitoring Locations OGC API"}},{"type":"Feature","geometry":{"type":"Point","coordinates":[-87.4500103766374,40.96585564831127]},"properties":{"site":"05525650","name":"BEAVER CREEK NEAR MOROCCO, IN","stage":null,"stage_time":null,"discharge":null,"verification":"station_discovery_only","source":"USGS Monitoring Locations OGC API"}},{"type":"Feature","geometry":{"type":"Point","coordinates":[-87.4638888888888,40.9588888888888]},"properties":{"site":"405732087275001","name":"BEAVER CK 70 FT DS OF W275S AT MOROCCO IN","stage":null,"stage_time":null,"discharge":null,"verification":"station_discovery_only","source":"USGS Monitoring Locations OGC API"}},{"type":"Feature","geometry":{"type":"Point","coordinates":[-87.24319444444444,41.01275]},"properties":{"site":"05520980","name":"IROQUOIS RIVER NEAR PARR, IN","stage":null,"stage_time":null,"discharge":null,"verification":"station_discovery_only","source":"USGS Monitoring Locations OGC API"}},{"type":"Feature","geometry":{"type":"Point","coordinates":[-87.18027919696108,41.03335500059674]},"properties":{"site":"05521000","name":"IROQUOIS RIVER AT ROSEBUD, IN","stage":null,"stage_time":null,"discharge":null,"verification":"station_discovery_only","source":"USGS Monitoring Locations OGC API"}},{"type":"Feature","geometry":{"type":"Point","coordinates":[-87.11388810143708,40.9700222878672]},"properties":{"site":"05522000","name":"IROQUOIS RIVER NEAR NORTH MARION, IND.","stage":null,"stage_time":null,"discharge":null,"verification":"station_discovery_only","source":"USGS Monitoring Locations OGC API"}},{"type":"Feature","geometry":{"type":"Point","coordinates":[-87.1288885998605,40.93335598400155]},"properties":{"site":"05522500","name":"IROQUOIS RIVER AT RENSSELAER, IN","stage":null,"stage_time":null,"discharge":null,"verification":"station_discovery_only","source":"USGS Monitoring Locations OGC API"}},{"type":"Feature","geometry":{"type":"Point","coordinates":[-87.1936342169386,40.9097600524501]},"properties":{"site":"05522600","name":"IROQUOIS RIVER NEAR RENSSELAER, IN","stage":null,"stage_time":null,"discharge":null,"verification":"station_discovery_only","source":"USGS Monitoring Locations OGC API"}},{"type":"Feature","geometry":{"type":"Point","coordinates":[-87.23611438214256,40.940855908208995]},"properties":{"site":"05524300","name":"YEOMAN DITCH TRIB NR RENSSELAER, IND.","stage":null,"stage_time":null,"discharge":null,"verification":"station_discovery_only","source":"USGS Monitoring Locations OGC API"}},{"type":"Feature","geometry":{"type":"Point","coordinates":[-87.2122455723451,40.9044822448396]},"properties":{"site":"405416087124400","name":"IROQUOIS RIVER BL I-65 NR RENSSELAER, IN","stage":null,"stage_time":null,"discharge":null,"verification":"station_discovery_only","source":"USGS Monitoring Locations OGC API"}},{"type":"Feature","geometry":{"type":"Point","coordinates":[-87.1911342191509,40.9119822602053]},"properties":{"site":"405443087112800","name":"IROQUOIS RIVER AB SLOUGH CREEK NR RENSSELAER, IN","stage":null,"stage_time":null,"discharge":null,"verification":"station_discovery_only","source":"USGS Monitoring Locations OGC API"}},{"type":"Feature","geometry":{"type":"Point","coordinates":[-87.1744444444444,40.9311111111111]},"properties":{"site":"405552087102801","name":"IROQUOIS R 5700 FT DS OF USHWY231 AT RENSSELAER IN","stage":null,"stage_time":null,"discharge":null,"verification":"station_discovery_only","source":"USGS Monitoring Locations OGC API"}},{"type":"Feature","geometry":{"type":"Point","coordinates":[-87.1283556680147,40.9339268668066]},"properties":{"site":"405602087074200","name":"IROQUOIS R AB STATE RTE 114 AT RENSSELAER, IN","stage":null,"stage_time":null,"discharge":null,"verification":"station_discovery_only","source":"USGS Monitoring Locations OGC API"}},{"type":"Feature","geometry":{"type":"Point","coordinates":[-87.1722222222222,40.9641666666666]},"properties":{"site":"405751087102001","name":"UNNAMED TRIB 9600 FT US OF SR114 NR RENSSELAER IN","stage":null,"stage_time":null,"discharge":null,"verification":"station_discovery_only","source":"USGS Monitoring Locations OGC API"}},{"type":"Feature","geometry":{"type":"Point","coordinates":[-87.1514133138083,41.0075371369582]},"properties":{"site":"410027087090501","name":"IROQUOIS RIVER AT US 231 NEAR RENSSELAER IN","stage":null,"stage_time":null,"discharge":null,"verification":"station_discovery_only","source":"USGS Monitoring Locations OGC API"}},{"type":"Feature","geometry":{"type":"Point","coordinates":[-87.0588888888888,40.9577777777777]},"properties":{"site":"405728087033201","name":"RYAN D 4840 FT US OF S250W NR RENSSELAER IN","stage":null,"stage_time":null,"discharge":null,"verification":"station_discovery_only","source":"USGS Monitoring Locations OGC API"}},{"type":"Feature","geometry":{"type":"Point","coordinates":[-86.786,41.08513888888889]},"properties":{"site":"03332349","name":"BIG MONON DITCH AT CR200N NEAR MEDARYVILLE, IN","stage":null,"stage_time":null,"discharge":null,"verification":"station_discovery_only","source":"USGS Monitoring Locations OGC API"}},{"type":"Feature","geometry":{"type":"Point","coordinates":[-86.83387878746382,41.05585476900043]},"properties":{"site":"03332350","name":"BIG MONON CREEK NR MEDARYVILLE, IN","stage":null,"stage_time":null,"discharge":null,"verification":"station_discovery_only","source":"USGS Monitoring Locations OGC API"}},{"type":"Feature","geometry":{"type":"Point","coordinates":[-86.86193528608734,40.98418880421436]},"properties":{"site":"03332400","name":"BIG MONON CREEK NEAR FRANCESVILLE, IND.","stage":null,"stage_time":null,"discharge":null,"verification":"station_discovery_only","source":"USGS Monitoring Locations OGC API"}},{"type":"Feature","geometry":{"type":"Point","coordinates":[-86.8169999999999,40.9178999999999]},"properties":{"site":"405501086490201","name":"BIG MONON CK 0.2 MI US BIG MONON DITCH NR MONON, I","stage":null,"stage_time":null,"discharge":null,"verification":"station_discovery_only","source":"USGS Monitoring Locations OGC API"}},{"type":"Feature","geometry":{"type":"Point","coordinates":[-86.59914876008796,41.04974368863146]},"properties":{"site":"03331753","name":"TIPPECANOE RIVER AT WINAMAC, IN","stage":null,"stage_time":null,"discharge":null,"verification":"station_discovery_only","source":"USGS Monitoring Locations OGC API"}},{"type":"Feature","geometry":{"type":"Point","coordinates":[-86.65831741308581,40.97224445517868]},"properties":{"site":"03332000","name":"TIPPECANOE R AT PULASKI IND","stage":null,"stage_time":null,"discharge":null,"verification":"station_discovery_only","source":"USGS Monitoring Locations OGC API"}},{"type":"Feature","geometry":{"type":"Point","coordinates":[-86.52831311078998,40.92002272980218]},"properties":{"site":"03332250","name":"INDIAN CREEK NR THORNHOPE, IN","stage":null,"stage_time":null,"discharge":null,"verification":"station_discovery_only","source":"USGS Monitoring Locations OGC API"}},{"type":"Feature","geometry":{"type":"Point","coordinates":[-86.6027862705773,41.0064297863691]},"properties":{"site":"410023086361001","name":"TIPPECANOE RIVER AT SR 119 NR WINAMAC IN","stage":null,"stage_time":null,"discharge":null,"verification":"station_discovery_only","source":"USGS Monitoring Locations OGC API"}},{"type":"Feature","geometry":{"type":"Point","coordinates":[-86.5833999999999,41.0131999999999]},"properties":{"site":"410048086350101","name":"MILL CK 0.6 MI US TIPPECANOE R NR WINIMAC, IN","stage":null,"stage_time":null,"discharge":null,"verification":"station_discovery_only","source":"USGS Monitoring Locations OGC API"}},{"type":"Feature","geometry":{"type":"Point","coordinates":[-86.32747305781974,41.05279916168122]},"properties":{"site":"03331430","name":"MUD CREEK NR BRUCE LAKE, IN","stage":null,"stage_time":null,"discharge":null,"verification":"station_discovery_only","source":"USGS Monitoring Locations OGC API"}},{"type":"Feature","geometry":{"type":"Point","coordinates":[-86.3349733455441,40.957800093572374]},"properties":{"site":"03331780","name":"MILL CREEK NEAR FULTON, IN","stage":null,"stage_time":null,"discharge":null,"verification":"station_discovery_only","source":"USGS Monitoring Locations OGC API"}},{"type":"Feature","geometry":{"type":"Point","coordinates":[-86.3750805555555,40.9821305555555]},"properties":{"site":"405856086223001","name":"MILL CK 600 FT US HINES DITCH NR MARSHTOWN, IN","stage":null,"stage_time":null,"discharge":null,"verification":"station_discovery_only","source":"USGS Monitoring Locations OGC API"}},{"type":"Feature","geometry":{"type":"Point","coordinates":[-86.3116083333333,41.0498055555555]},"properties":{"site":"410301086184501","name":"MUD CK 0.3 MI US GRUBE DITCH NR PERSHING, IN","stage":null,"stage_time":null,"discharge":null,"verification":"station_discovery_only","source":"USGS Monitoring Locations OGC API"}},{"type":"Feature","geometry":{"type":"Point","coordinates":[-86.12663311848956,40.909467185796494]},"properties":{"site":"03328430","name":"WEESAU CREEK NEAR DEEDSVILLE, IN","stage":null,"stage_time":null,"discharge":null,"verification":"station_discovery_only","source":"USGS Monitoring Locations OGC API"}},{"type":"Feature","geometry":{"type":"Point","coordinates":[-85.9441573194652,40.9133766479469]},"properties":{"site":"405448085563901","name":"EEL RIVER AT SR 16 AT STOCKDALE IN","stage":null,"stage_time":null,"discharge":null,"verification":"station_discovery_only","source":"USGS Monitoring Locations OGC API"}},{"type":"Feature","geometry":{"type":"Point","coordinates":[-85.78258333333333,40.99455555555556]},"properties":{"site":"03328000","name":"EEL RIVER AT NORTH MANCHESTER, IN","stage":null,"stage_time":null,"discharge":null,"verification":"station_discovery_only","source":"USGS Monitoring Locations OGC API"}},{"type":"Feature","geometry":{"type":"Point","coordinates":[-85.8269008920769,40.99974397043451]},"properties":{"site":"03328020","name":"OTTER CR TRIB NR NORTH MANCHESTER, IND.","stage":null,"stage_time":null,"discharge":null,"verification":"station_discovery_only","source":"USGS Monitoring Locations OGC API"}},{"type":"Feature","geometry":{"type":"Point","coordinates":[-85.5418914909557,40.915855791668655]},"properties":{"site":"03324050","name":"CLEAR CREEK NR HUNTINGTON, IN","stage":null,"stage_time":null,"discharge":null,"verification":"station_discovery_only","source":"USGS Monitoring Locations OGC API"}},{"type":"Feature","geometry":{"type":"Point","coordinates":[-85.62217179645296,41.09418741393594]},"properties":{"site":"03327875","name":"CLEAR CRK ABOVE SPRING CRK AT S. WHITLEY, IN","stage":null,"stage_time":null,"discharge":null,"verification":"station_discovery_only","source":"USGS Monitoring Locations OGC API"}},{"type":"Feature","geometry":{"type":"Point","coordinates":[-85.62189400943394,41.09418741381435]},"properties":{"site":"03327876","name":"SPRING CRK BELOW CLEAR CRK AT S. WHITLEY, IN","stage":null,"stage_time":null,"discharge":null,"verification":"station_discovery_only","source":"USGS Monitoring Locations OGC API"}},{"type":"Feature","geometry":{"type":"Point","coordinates":[-85.61494934846496,41.07529870401242]},"properties":{"site":"03327900","name":"SUGAR CREEK AT SOUTH WHITLEY, IN","stage":null,"stage_time":null,"discharge":null,"verification":"station_discovery_only","source":"USGS Monitoring Locations OGC API"}},{"type":"Feature","geometry":{"type":"Point","coordinates":[-85.6242999999999,41.0949999999999]},"properties":{"site":"410543085373101","name":"CLEAR CK 980 FT US SPRING CK AT SOUTH WHITLEY, IN","stage":null,"stage_time":null,"discharge":null,"verification":"station_discovery_only","source":"USGS Monitoring Locations OGC API"}}]}
