{"type":"FeatureCollection","features":[{"type":"Feature","properties":{"name":"North Branch Chicago River","source":"Chicago Paddling.kml","classification":"unverified route","navigability":"unknown"},"geometry":{"type":"LineString","coordinates":[[-87.68428900517844,42.07613756685238],[-87.68594873936307,42.07437627939158],[-87.68638872276816,42.07348372834179],[-87.68643918556641,42.06584438825704],[-87.6878915000395,42.06306806993651],[-87.68979245532692,42.06127157880815],[-87.70670766532317,42.05335776468888],[-87.70836709470187,42.05229172768714],[-87.70935208909599,42.05047939900397],[-87.71006432423016,42.02604882070154],[-87.7102647100668,42.02517200493448],[-87.7099734625103,42.02427593965437],[-87.71021458457092,42.02311608273798],[-87.71080003373034,41.99802472664664],[-87.71013064118038,41.99399263125633],[-87.70418953870026,41.97407630461329],[-87.70359160550592,41.97202208844385],[-87.701472061121,41.96878555940283],[-87.69571428851366,41.96337158972723],[-87.69465436451154,41.96122501471971],[-87.69445681982641,41.95411571498862],[-87.69684185992735,41.95034348301127],[-87.69548304462741,41.94339796046513],[-87.69493602718497,41.94226098032932],[-87.69256015480589,41.93942645281399],[-87.69082508735656,41.93805918240566],[-87.69037569885617,41.93681661265224],[-87.68811552072462,41.93605180918293],[-87.68750262410029,41.93587123988844],[-87.68609420990177,41.93412098802023],[-87.6832117724818,41.93325047885776],[-87.68232914875715,41.93136735305124],[-87.68089709764723,41.93073402869262],[-87.67971063448908,41.92863200951201],[-87.6754152098497,41.92705121202169],[-87.67453424120252,41.92636786971853],[-87.6743301855349,41.92453686687805],[-87.67168074430019,41.92242105521493],[-87.66838224448826,41.92197890889819],[-87.66464335398034,41.91798417693952],[-87.66382366814393,41.91582271821891],[-87.66290395363961,41.91556470037344],[-87.66118787533752,41.91601211795184],[-87.65915812654228,41.91495969583163],[-87.6577922770897,41.91355712308575],[-87.65643202006258,41.91024635924299],[-87.6549793883238,41.91012406344269],[-87.64820560099103,41.90204836889848],[-87.64644791812857,41.9006971249462],[-87.64512498305346,41.89794117219643],[-87.64415123961598,41.89633982767413],[-87.64386148281643,41.89390045843924],[-87.64084512461086,41.89140862772063],[-87.63934766949934,41.88895970128888],[-87.6387145055199,41.88711375327037],[-87.63796680594656,41.8861337050695]]}},{"type":"Feature","properties":{"name":"Chicago River South Fork","source":"Chicago Paddling.kml","classification":"unverified route","navigability":"unknown"},"geometry":{"type":"LineString","coordinates":[[-88.07736961838376,41.56958447058109],[-88.07580489969753,41.5752922368243],[-88.06902177261529,41.58256128206452],[-88.06883228538678,41.58255746451284],[-88.06498298115358,41.59634363089916],[-88.05933183480028,41.6473674028876],[-88.05609047191797,41.65435866938385],[-88.05162932054652,41.65941285114566],[-88.0450298766068,41.66405102392046],[-88.03393276444062,41.66851802418813],[-87.95784135058551,41.69313342126092],[-87.89019630677497,41.72736635214194],[-87.85430675005045,41.75267086192669],[-87.81677691861505,41.79270015328906],[-87.8111330045921,41.79686448187975],[-87.80369917164165,41.80017347825427],[-87.67625142418859,41.84059353273228],[-87.67242327358993,41.8432608631729],[-87.66669693163794,41.84506509559256],[-87.66306797715083,41.84466170136607],[-87.65689006541123,41.84834236295258],[-87.65325483571499,41.84808728573543],[-87.64435295075398,41.84953286679103],[-87.64235549871012,41.85005491022012],[-87.63931823941817,41.8544752853953],[-87.63593059324627,41.85663731682695],[-87.63482555319499,41.85840017874649],[-87.63447690686503,41.86227630901893],[-87.6358771302414,41.87420727047072],[-87.63740959519733,41.87692455234549],[-87.63785749422127,41.88016004217937],[-87.6377308296901,41.88563679542222],[-87.63610559339821,41.88718133987769],[-87.62809678121792,41.88743975085664],[-87.62530939495812,41.88894575646906],[-87.61388610838134,41.88828472108914]]}},{"type":"Feature","properties":{"name":"Des Plaines River","source":"Chicago Paddling.kml","classification":"unverified route","navigability":"unknown"},"geometry":{"type":"LineString","coordinates":[[-88.257316617242,41.39189203218432],[-88.24205916922256,41.3828932289936],[-88.23531916333056,41.38509773092061],[-88.21790365274454,41.41225762373528],[-88.1718110303651,41.43287778369741],[-88.16650589727871,41.45003191733036],[-88.16995865708961,41.4627186472657],[-88.1584227380356,41.47097428855822],[-88.1161824640007,41.49196281316841],[-88.087845435635,41.52053115123105],[-88.08141833952988,41.56348317617682],[-88.06897743135141,41.62085951211371],[-88.06960653943396,41.63819976334209],[-88.06017632560592,41.65694753552171],[-88.04126435970217,41.66777731562487],[-87.9224346866399,41.71161410565595],[-87.88454427454573,41.73212568873867],[-87.81426302621476,41.80067313853586],[-87.80955795560712,41.80419488917724],[-87.80684972609599,41.8192804800588],[-87.81812029118444,41.82446827312398],[-87.8315471801878,41.81753282513617],[-87.82273778933678,41.85417716413625],[-87.83315714970632,41.90130284255464],[-87.82342247575714,41.90952995843869],[-87.83344262158592,41.9119315727845],[-87.83309557193289,41.91797461334515],[-87.84346239892977,41.92689029928826],[-87.85483782125179,41.9515213922209],[-87.85766800450597,41.96090352215119],[-87.85420902907816,41.97204721593564],[-87.85945480674225,41.97183326476024],[-87.86268291152436,41.97470488765769],[-87.85564894104057,41.98280474622639],[-87.85793302507454,41.9902247355904],[-87.8606872082713,41.99157472031001],[-87.85716841080128,41.99594571994213],[-87.86062803272789,41.99796065350674],[-87.85987786514174,41.99976057423245],[-87.8647789175743,42.0050327173046],[-87.86004887395771,42.00743212029038],[-87.86092658650556,42.01002660416138],[-87.8669815627571,42.01778464762165],[-87.87263499269115,42.0163708265762],[-87.87468446313962,42.0249032389766],[-87.87592891019955,42.03057326701043],[-87.88100597806114,42.03413125701346],[-87.88204405111466,42.03837435956827],[-87.87852374534577,42.03970259487387],[-87.8789850022102,42.0450160804871],[-87.87332851489582,42.04968720989455],[-87.88036984114827,42.049387684499],[-87.88192799834192,42.05393063522252],[-87.88654551069548,42.05371634590509],[-87.88752688628979,42.05675918790997],[-87.88198556450261,42.05847350262773],[-87.88517221957177,42.06214484089789],[-87.88648834217686,42.06871638913251],[-87.89133813055895,42.07073052104017],[-87.88677721295792,42.07343076381905],[-87.88908694445018,42.07625937022357],[-87.89019628274606,42.08340226172927],[-87.88875312809311,42.09086010767567],[-87.88540339061362,42.09527505024742],[-87.88898487940183,42.100290215099],[-87.88411360874834,42.10126376760773],[-87.91338411639458,42.15840906725499],[-87.91142580477471,42.17139310720786],[-87.918160355897,42.17413226451561],[-87.92080320501891,42.17887808548369],[-87.9133446357383,42.18621897649999],[-87.9208663744335,42.19235719455825],[-87.91842514192844,42.20008814422997],[-87.92324789565157,42.20375741773257],[-87.92875707648146,42.21480450235175],[-87.93668940830119,42.22387000348906],[-87.93186805119178,42.22910601126861],[-87.94168949572986,42.24824462809175],[-87.94155806828019,42.25181612341061],[-87.93812093597069,42.25113148126869],[-87.93865070094904,42.25705137161552],[-87.93408954631278,42.25592634399618],[-87.93737856032936,42.26601677828634],[-87.9393627500791,42.27663364669709],[-87.9334109680395,42.28128140229191],[-87.93786648816453,42.28456250892546],[-87.93495742344751,42.29292863410386],[-87.9543388920431,42.30193042756547],[-87.95640817937911,42.31964198380472],[-87.92597220791717,42.36114951255458],[-87.91775919476304,42.36871323190221],[-87.92219537628156,42.37781360753358],[-87.91252520168332,42.38148211759688],[-87.92072754940747,42.3931577858237],[-87.93225483148807,42.40940097590029],[-87.93369436599001,42.4252440273312],[-87.93508669788318,42.440948738551],[-87.93389349631686,42.45058752223226],[-87.93913330082852,42.46311441664695],[-87.93919666387008,42.47144805846857],[-87.9195734521742,42.49471042934105]]}},{"type":"Feature","properties":{"name":"Kankakee River","source":"Chicago Paddling.kml","classification":"unverified route","navigability":"unknown"},"geometry":{"type":"LineString","coordinates":[[-88.26045088027045,41.39372353478187],[-88.26378958944657,41.37857528627746],[-88.25677636946737,41.36938819673748],[-88.24383076636789,41.36442383327817],[-88.24178900633179,41.35908737669345],[-88.22615568136636,41.35617778019699],[-88.21487256894898,41.35877608515971],[-88.19962401759885,41.35213635351573],[-88.18944236597179,41.34977923148018],[-88.18505291981397,41.34046987895002],[-88.18711086513633,41.32988667545331],[-88.18471208291598,41.32619640012378],[-88.1693153230041,41.3227808306758],[-88.1586054705345,41.32319882367631],[-88.15276517455702,41.3168857713787],[-88.15309874490272,41.30899889571258],[-88.15379351417097,41.29318887856222],[-88.14661407702434,41.27690103501985],[-88.14850337363222,41.26831697381524],[-88.12297466879089,41.24394620961539],[-88.11146659502774,41.24060574263994],[-88.10291776729606,41.24180425726436],[-88.0949091582686,41.23642264924305],[-88.08564253308786,41.23446627355549],[-88.06520048457008,41.22785728957843],[-88.05204782128548,41.22691674768881],[-88.04500199476533,41.22542375977012],[-88.02549047030236,41.20886157190215],[-88.00626123166232,41.20826113439031],[-87.99843992608426,41.20887283596993],[-87.98282562583411,41.20196675949047],[-87.96778514024963,41.1931694998858],[-87.95821488434868,41.17661341263075],[-87.94570079834716,41.16412360414216],[-87.93841868291348,41.15921462872047],[-87.92099936037188,41.15579200310901],[-87.91193233963209,41.14897291588063],[-87.89615290982927,41.14864922301324],[-87.87432904249702,41.11380655419466],[-87.86480733698069,41.11278122536955],[-87.85087000301233,41.10050319046456],[-87.83217959746302,41.09994756641293],[-87.82726195181674,41.08391434025837],[-87.81444191539636,41.07407055594169],[-87.79376830488552,41.07737229026596],[-87.79089258692063,41.08086243669342],[-87.79054167865327,41.08601981358926],[-87.78500423946785,41.09041006647681],[-87.78018080246986,41.09443641854745],[-87.77234441192716,41.10395718310807],[-87.75883677743941,41.10942299614899],[-87.74146470876359,41.12942292561847],[-87.72716311707819,41.13481663727995],[-87.72318326956395,41.14004636442002],[-87.72448836349064,41.14498857018975],[-87.71950680285049,41.14649337546616],[-87.71292266035317,41.14585999979494],[-87.70681958516545,41.15106416004786],[-87.70107017819015,41.15449251170591],[-87.68797192353988,41.1593102760161],[-87.66795705300488,41.15917774605411],[-87.64359698513864,41.16872079196009],[-87.6301508278259,41.16809943864839],[-87.61184760374213,41.16531792798194],[-87.60996896166121,41.16120022712368],[-87.59921674734755,41.15922444091878],[-87.5907670849098,41.1600064914659],[-87.58711533203964,41.16254330748776],[-87.5652682531061,41.1620517020317],[-87.5628503545695,41.16789456272641],[-87.55564879747813,41.16572522416491],[-87.54890542265312,41.16765540234916],[-87.5515054815885,41.16424772953453],[-87.54422855630654,41.16195810969249],[-87.53488651485267,41.16029539793954],[-87.53507944218241,41.16219651915564],[-87.52601304808279,41.16575754171851],[-87.50574110124843,41.16755027287323],[-87.4831858368919,41.17019451642038],[-87.45945539645602,41.1704295314655],[-87.44490471376376,41.17461794334584],[-87.41664211548071,41.16239682652898],[-87.39433137179103,41.16276478800261],[-87.38230194879782,41.1718651827789],[-87.36317673087848,41.17757615158417],[-87.34880585277564,41.18289830777984],[-87.3313993272797,41.18220375479105],[-87.32388434577662,41.1868543375783],[-87.28489389761384,41.21571873069695],[-87.22620058934842,41.2354635814448],[-87.19413731875991,41.26411474452362],[-87.13180877725244,41.28608576141982],[-87.12185325100653,41.28621940640302],[-87.06008870162601,41.26968601541329],[-87.023556791436,41.2477635292163],[-87.00345223679227,41.23675112819515],[-86.98380992073591,41.22849403080155],[-86.9766579155545,41.22090247248288],[-86.96723900621679,41.21935194385537],[-86.96179342808168,41.22309799687849],[-86.9377810165421,41.22979349677674],[-86.92135452819898,41.24471472822719],[-86.91567383853803,41.24598537847682],[-86.89619317884892,41.25506390092503],[-86.87703693833214,41.26045467592151],[-86.8731594470503,41.26352646889746],[-86.85340477317636,41.26671297073099],[-86.84629611083976,41.26678715462929],[-86.84015975290167,41.27148302748193],[-86.81572338836911,41.27294799022926],[-86.78477142609621,41.28488216927609],[-86.76110072651947,41.30757809495716],[-86.75453080092888,41.31101378112344],[-86.73857518060245,41.3233608352212],[-86.73523072246691,41.33840844473814],[-86.72462063596099,41.3510130860548],[-86.72316251771261,41.36179091668122],[-86.70804373477273,41.38119525247642],[-86.70606640257134,41.39179291763799],[-86.70051033163419,41.40224466276501],[-86.68161253308024,41.41218772646381],[-86.67018794501034,41.41426197175114],[-86.63645991310534,41.43672590814996],[-86.62117632633637,41.45248626753959],[-86.59957203137867,41.48402269596374],[-86.55649834245182,41.49723040156206],[-86.54880997956597,41.5041004124323],[-86.54477058253059,41.506043116043],[-86.53169180447034,41.52190779818829],[-86.52772650037997,41.5332172257094],[-86.51914610496216,41.54108545454198],[-86.51387208075653,41.54617769839114],[-86.51186303042165,41.55035818104581],[-86.50870936987579,41.5522315307209],[-86.48541551840894,41.57136422309242],[-86.46755096319053,41.58466550123649],[-86.4572176354884,41.59034345583409],[-86.44609556131532,41.59492662133923],[-86.43962330739566,41.60143426948052],[-86.42586438735246,41.60422257182929]]}},{"type":"Feature","properties":{"name":"Illinois River","source":"Chicago Paddling.kml","classification":"unverified route","navigability":"unknown"},"geometry":{"type":"LineString","coordinates":[[-90.46723679490147,38.9674568162566],[-90.48108148576235,38.96777243632874],[-90.49485327632735,38.96480446166363],[-90.51883081913076,38.95174821236863],[-90.54067626921625,38.96261766469573],[-90.57237633787601,38.99790403937879],[-90.57730623257844,39.01361619995436],[-90.5735048176476,39.03059589980837],[-90.58549277641673,39.04279963425407],[-90.59084003659642,39.05032068248086],[-90.5813207413156,39.06447602682174],[-90.59450607581712,39.09007137122431],[-90.61492650831508,39.1396473386927],[-90.6157926863862,39.15384074368577],[-90.61173059617884,39.1693615339108],[-90.60289747979053,39.17800450206472],[-90.59069868659554,39.19745203374852],[-90.5947565010106,39.22924000249174],[-90.59479139372786,39.24278139645389],[-90.60595340832842,39.25263255502207],[-90.60846865970525,39.26685932658928],[-90.60025048157594,39.29120343558306],[-90.61194209252028,39.30896618159439],[-90.62131044042466,39.36962931105634],[-90.61411902866384,39.40308369568534],[-90.61457764536772,39.43484251635194],[-90.60730788269603,39.46152186009492],[-90.58864873301388,39.49731703285058],[-90.58090347550997,39.51220165707929],[-90.58035137499043,39.52898211445298],[-90.57369157915583,39.54459070055213],[-90.57645226832541,39.56071351889845],[-90.60466884620634,39.62084151853708],[-90.6093656549288,39.6417881358383],[-90.62462836125802,39.65562918833753],[-90.64069175082993,39.68282859165321],[-90.64628474376424,39.70055137084261],[-90.64141499758396,39.71471042027069],[-90.62004280132041,39.74291490608581],[-90.60921747278991,39.75741993287326],[-90.60483864150297,39.76737331496195],[-90.60913234618606,39.77155218101656],[-90.59474896651813,39.79784649298536],[-90.5807897780289,39.81184843284176],[-90.56394294443464,39.83025123085984],[-90.57919440107761,39.84766205878757],[-90.5858060678773,39.87387878709803],[-90.57627601689356,39.89024726314418],[-90.55987709562305,39.89876223674018],[-90.54007814956994,39.91571721506785],[-90.53682069950047,39.92094068179647],[-90.53714860938938,39.93031294761514],[-90.53107369969935,39.94596437288966],[-90.51062853267172,39.96818657930412],[-90.51232575904132,39.98097996437244],[-90.51464303830443,39.99243834278257],[-90.49018086917873,40.00162701212318],[-90.46656614623973,40.00681314941701],[-90.44344134765161,40.01767548480594],[-90.43627832363961,40.0188844858144],[-90.4327708748893,40.02888583286373],[-90.42933567981744,40.04345490555485],[-90.42821655811383,40.06155687991032],[-90.39548744406082,40.0757933021048],[-90.39122600599875,40.0973919194181],[-90.37632275826994,40.11788790461257],[-90.36760303036063,40.12403669145935],[-90.35074431783656,40.12457501559513],[-90.3373340492129,40.13679603072682],[-90.305049724851,40.14061652014334],[-90.27509849868129,40.15246472771274],[-90.25636900921742,40.15594385432922],[-90.22117198865459,40.15023872658615],[-90.20310869647011,40.15610507208149],[-90.20228467474816,40.17407266549005],[-90.19524429480009,40.19103342321998],[-90.17664463891316,40.19924883623615],[-90.16055558908062,40.21948175048656],[-90.13538752816778,40.22345007955555],[-90.11984811296556,40.233106355293],[-90.11443706189289,40.2441181492711],[-90.10633532669037,40.2617071920743],[-90.08376014765153,40.27836264597795],[-90.06835132852075,40.29608833947733],[-90.0704538513304,40.30456909958813],[-90.06546500323834,40.31581074772917],[-90.04808377121108,40.33300067317576],[-90.05221005238576,40.35314776411366],[-90.04510564557101,40.36630475555844],[-90.03438782456688,40.37680492414102],[-89.98496729150777,40.39285498707935],[-89.94958125422158,40.42490012124506],[-89.90642537523983,40.44571826515997],[-89.90561967394937,40.45761559956503],[-89.88731107490476,40.47556383512642],[-89.88172753623267,40.50446883003704],[-89.8771912261914,40.51062767936834],[-89.81111098200242,40.54105527806697],[-89.77250695204208,40.55322303875615],[-89.74480187837398,40.54976314860095],[-89.697517223216,40.56088779696336],[-89.69114362325031,40.55955728855315],[-89.68258612214858,40.55255604955108],[-89.67628784201081,40.55352028075369],[-89.66752948398485,40.56050501532182],[-89.66174092577552,40.56460481836172],[-89.65407624571269,40.57172293893875],[-89.65502995631944,40.58097757820653],[-89.66171299067327,40.59533095160513],[-89.65579280173058,40.60733226520484],[-89.61864174480613,40.63728869631851],[-89.60812889357234,40.65224106707343],[-89.6165256790625,40.6557334459885],[-89.6150797653832,40.6626529979247],[-89.59726896242691,40.67936385760115],[-89.57965947936202,40.69180514898068],[-89.55746265966287,40.7027810368163],[-89.54954842842074,40.7224672171651],[-89.54998508560494,40.75876889954839],[-89.55789801982318,40.80898825014408],[-89.52363812746383,40.84450742820059],[-89.4953788172503,40.87357049294003],[-89.49189843261938,40.89131789040218],[-89.48167351689364,40.91678312947676],[-89.46746292632626,40.92372870510265],[-89.45222842918137,40.93572800478276],[-89.45636136007604,40.94537902485577],[-89.44748157465354,40.9565840994847],[-89.44896707232908,40.9707333344898],[-89.43732023322075,40.98874598812765],[-89.42334933757209,41.01218660070697],[-89.4108741766394,41.04659365472833],[-89.38812582735785,41.07306823606086],[-89.3761166835302,41.08277287229888],[-89.35612633231983,41.10546569782969],[-89.34989121767383,41.10954617911748],[-89.33939150998789,41.11172677623747],[-89.33207090456202,41.12198516129906],[-89.33187517450183,41.14619780366121],[-89.31885811954204,41.16010982691287],[-89.33282292881734,41.19446551193388],[-89.34396818369778,41.20935198941564],[-89.35417071355724,41.21483726242572],[-89.35840703268266,41.22578407279377],[-89.35476685340664,41.24095469973954],[-89.34227353153925,41.26911844991364],[-89.33567802066557,41.28124366402322],[-89.34166429472907,41.29410910077305],[-89.33765257207877,41.29987750097607],[-89.30320566115267,41.30666575481622],[-89.28247075727452,41.31295166165307],[-89.26681192545179,41.32162675144304],[-89.22835845204729,41.31587752351419],[-89.2149383858503,41.31212681626602],[-89.18770090501792,41.31174072713664],[-89.16946548475079,41.30878530233915],[-89.15147692561267,41.31384665871307],[-89.11960885422688,41.32433263052569],[-89.11291878724931,41.32116381841498],[-89.1087881711003,41.31447945683984],[-89.09687392909301,41.31292820609617],[-89.07785903093779,41.32462871207878],[-89.06630048071123,41.32044392069409],[-89.0445929624799,41.31975205264863],[-89.01882325117836,41.32667565537254],[-89.00474559055462,41.32693619121123],[-88.96803994582838,41.31662847040699],[-88.92678811453636,41.31747564871687],[-88.8948333417053,41.32130443518794],[-88.87547176284741,41.32257454495781],[-88.86149943503163,41.33560796117271],[-88.84110468828676,41.34358676345262],[-88.81748725176769,41.34195687360163],[-88.79750192166526,41.34007296964825],[-88.78536580699686,41.33768621497363],[-88.77589738560918,41.33277695031462],[-88.7583470884597,41.33021840357754],[-88.73977639537843,41.33167864459266],[-88.71979769761882,41.32652119520616],[-88.69402864042253,41.32052239102585],[-88.68370286202904,41.3161734143741],[-88.66969432151129,41.31223657924069],[-88.65426689382875,41.31476345098334],[-88.63858591176235,41.31008905876045],[-88.62680009635714,41.30072479033561],[-88.60077944751987,41.29859508856766],[-88.55638995720666,41.32278961914576],[-88.53920631786372,41.32624354615417],[-88.50249003808547,41.33327380994621],[-88.48553379984091,41.3411954427694],[-88.45092544920034,41.34756162473778],[-88.3620098347221,41.36839380215754],[-88.31385469438925,41.39124778552362],[-88.28107309862231,41.40026826980708],[-88.263286695678,41.39856808537284],[-88.25560401317082,41.39237991769097]]}}]}